{"type": "FeatureCollection", "features": [ {"type": "Feature", "properties": {"norad_id": 29868, "name": "FENGYUN 1C DEB", "group": "fengyun-1c-debris", "lat": 2.6278419225786163, "lon": 45.933811723198964, "alt_km": 536.7399554029289, "timestamp": "2025-12-26T17:24:54.991360+00:00", "meta": {"OBJECT_NAME": "FENGYUN 1C DEB", "OBJECT_ID": "1999-025FN", "EPOCH": "2025-12-26T01:29:38.768064", "MEAN_MOTION": 14.78594244, "ECCENTRICITY": 0.01953373, "INCLINATION": 97.9482, "RA_OF_ASC_NODE": 45.6457, "ARG_OF_PERICENTER": 320.8312, "MEAN_ANOMALY": 111.3955, "EPHEMERIS_TYPE": 0, "CLASSIFICATION_TYPE": "U", "NORAD_CAT_ID": 29868, "ELEMENT_SET_NO": 999, "REV_AT_EPOCH": 492, "BSTAR": 0.00065173866, "MEAN_MOTION_DOT": 6.517e-05, "MEAN_MOTION_DDOT": 0}, "tle": {"line1": "1 29868U 99025FN  25360.06225426  .00006517  00000+0  65174-3 0  9995", "line2": "2 29868  97.9482  45.6457 0195337 320.8312 111.3955 14.78594244  4920"}}, "geometry": {"type": "Point", "coordinates": [45.933811723198964, 2.6278419225786163]}}, {"type": "Feature", "properties": {"norad_id": 29869, "name": "FENGYUN 1C DEB", "group": "fengyun-1c-debris", "lat": 55.80027555521237, "lon": 124.7429366206491, "alt_km": 818.6705713183519, "timestamp": "2025-12-26T17:24:54.991370+00:00", "meta": {"OBJECT_NAME": "FENGYUN 1C DEB", "OBJECT_ID": "1999-025FP", "EPOCH": "2025-12-25T19:23:43.492128", "MEAN_MOTION": 14.36917024, "ECCENTRICITY": 0.00869035, "INCLINATION": 98.8747, "RA_OF_ASC_NODE": 290.5055, "ARG_OF_PERICENTER": 332.6079, "MEAN_ANOMALY": 86.6375, "EPHEMERIS_TYPE": 0, "CLASSIFICATION_TYPE": "U", "NORAD_CAT_ID": 29869, "ELEMENT_SET_NO": 999, "REV_AT_EPOCH": 99008, "BSTAR": 0.00042523577, "MEAN_MOTION_DOT": 1.265e-05, "MEAN_MOTION_DDOT": 0}, "tle": {"line1": "1 29869U 99025FP  25359.80814227  .00001265  00000+0  42524-3 0  9998", "line2": "2 29869  98.8747 290.5055 0086903 332.6079  86.6375 14.36917024990089"}}, "geometry": {"type": "Point", "coordinates": [124.7429366206491, 55.80027555521237]}}, {"type": "Feature", "properties": {"norad_id": 29870, "name": "FENGYUN 1C DEB", "group": "fengyun-1c-debris", "lat": 65.71290952791779, "lon": 170.49613247664792, "alt_km": 720.4997801514128, "timestamp": "2025-12-26T17:24:54.991380+00:00", "meta": {"OBJECT_NAME": "FENGYUN 1C DEB", "OBJECT_ID": "1999-025FQ", "EPOCH": "2025-12-26T05:12:15.178176", "MEAN_MOTION": 14.28984312, "ECCENTRICITY": 0.01206558, "INCLINATION": 98.462, "RA_OF_ASC_NODE": 330.7392, "ARG_OF_PERICENTER": 152.7514, "MEAN_ANOMALY": 224.9944, "EPHEMERIS_TYPE": 0, "CLASSIFICATION_TYPE": "U", "NORAD_CAT_ID": 29870, "ELEMENT_SET_NO": 999, "REV_AT_EPOCH": 98786, "BSTAR": 5.4933306e-05, "MEAN_MOTION_DOT": 1.08e-06, "MEAN_MOTION_DDOT": 0}, "tle": {"line1": "1 29870U 99025FQ  25360.21684234  .00000108  00000+0  54933-4 0  9993", "line2": "2 29870  98.4620 330.7392 0120655 152.7514 224.9944 14.28984312987862"}}, "geometry": {"type": "Point", "coordinates": [170.49613247664792, 65.71290952791779]}}, {"type": "Feature", "properties": {"norad_id": 29871, "name": "FENGYUN 1C DEB", "group": "fengyun-1c-debris", "lat": 32.50375612058204, "lon": -51.198631586826146, "alt_km": 712.407228822346, "timestamp": "2025-12-26T17:24:54.991391+00:00", "meta": {"OBJECT_NAME": "FENGYUN 1C DEB", "OBJECT_ID": "1999-025FR", "EPOCH": "2025-12-26T02:33:45.154368", "MEAN_MOTION": 14.42717409, "ECCENTRICITY": 0.00590569, "INCLINATION": 98.975, "RA_OF_ASC_NODE": 313.9296, "ARG_OF_PERICENTER": 68.4927, "MEAN_ANOMALY": 352.5192, "EPHEMERIS_TYPE": 0, "CLASSIFICATION_TYPE": "U", "NORAD_CAT_ID": 29871, "ELEMENT_SET_NO": 999, "REV_AT_EPOCH": 98894, "BSTAR": 0.00098801592, "MEAN_MOTION_DOT": 3.311e-05, "MEAN_MOTION_DDOT": 0}, "tle": {"line1": "1 29871U 99025FR  25360.10677262  .00003311  00000+0  98802-3 0  9996", "line2": "2 29871  98.9750 313.9296 0059056  68.4927 352.5192 14.42717409988945"}}, "geometry": {"type": "Point", "coordinates": [-51.198631586826146, 32.50375612058204]}}, {"type": "Feature", "properties": {"norad_id": 29872, "name": "FENGYUN 1C DEB", "group": "fengyun-1c-debris", "lat": 25.174815681371825, "lon": 12.37411313241274, "alt_km": 826.3545238345423, "timestamp": "2025-12-26T17:24:54.991401+00:00", "meta": {"OBJECT_NAME": "FENGYUN 1C DEB", "OBJECT_ID": "1999-025FS", "EPOCH": "2025-12-25T14:35:45.428352", "MEAN_MOTION": 14.39012504, "ECCENTRICITY": 0.0234927, "INCLINATION": 98.3448, "RA_OF_ASC_NODE": 15.2418, "ARG_OF_PERICENTER": 274.7458, "MEAN_ANOMALY": 82.694, "EPHEMERIS_TYPE": 0, "CLASSIFICATION_TYPE": "U", "NORAD_CAT_ID": 29872, "ELEMENT_SET_NO": 999, "REV_AT_EPOCH": 98777, "BSTAR": 0.00053526, "MEAN_MOTION_DOT": 2.228e-05, "MEAN_MOTION_DDOT": 0}, "tle": {"line1": "1 29872U 99025FS  25359.60816468  .00002228  00000+0  53526-3 0  9993", "line2": "2 29872  98.3448  15.2418 0234927 274.7458  82.6940 14.39012504987777"}}, "geometry": {"type": "Point", "coordinates": [12.37411313241274, 25.174815681371825]}}, {"type": "Feature", "properties": {"norad_id": 29873, "name": "FENGYUN 1C DEB", "group": "fengyun-1c-debris", "lat": -29.9567097476929, "lon": 35.699855366733274, "alt_km": 862.2576734273262, "timestamp": "2025-12-26T17:24:54.991412+00:00", "meta": {"OBJECT_NAME": "FENGYUN 1C DEB", "OBJECT_ID": "1999-025FT", "EPOCH": "2025-12-26T03:17:37.219776", "MEAN_MOTION": 13.98154627, "ECCENTRICITY": 0.0092482, "INCLINATION": 99.4415, "RA_OF_ASC_NODE": 220.598, "ARG_OF_PERICENTER": 162.0588, "MEAN_ANOMALY": 327.4107, "EPHEMERIS_TYPE": 0, "CLASSIFICATION_TYPE": "U", "NORAD_CAT_ID": 29873, "ELEMENT_SET_NO": 999, "REV_AT_EPOCH": 96502, "BSTAR": 0.00041893171, "MEAN_MOTION_DOT": 5.72e-06, "MEAN_MOTION_DDOT": 0}, "tle": {"line1": "1 29873U 99025FT  25360.13723634  .00000572  00000+0  41893-3 0  9990", "line2": "2 29873  99.4415 220.5980 0092482 162.0588 327.4107 13.98154627965026"}}, "geometry": {"type": "Point", "coordinates": [35.699855366733274, -29.9567097476929]}}, {"type": "Feature", "properties": {"norad_id": 29874, "name": "FENGYUN 1C DEB", "group": "fengyun-1c-debris", "lat": 6.734928330611274, "lon": 78.07052985957185, "alt_km": 851.3211602921219, "timestamp": "2025-12-26T17:24:54.991422+00:00", "meta": {"OBJECT_NAME": "FENGYUN 1C DEB", "OBJECT_ID": "1999-025FU", "EPOCH": "2025-12-26T05:26:47.406048", "MEAN_MOTION": 14.29019399, "ECCENTRICITY": 0.01037848, "INCLINATION": 98.3783, "RA_OF_ASC_NODE": 256.594, "ARG_OF_PERICENTER": 311.8052, "MEAN_ANOMALY": 178.0059, "EPHEMERIS_TYPE": 0, "CLASSIFICATION_TYPE": "U", "NORAD_CAT_ID": 29874, "ELEMENT_SET_NO": 999, "REV_AT_EPOCH": 97040, "BSTAR": 0.003243826, "MEAN_MOTION_DOT": 8.666e-05, "MEAN_MOTION_DDOT": 0}, "tle": {"line1": "1 29874U 99025FU  25360.22693757  .00008666  00000+0  32438-2 0  9999", "line2": "2 29874  98.3783 256.5940 0103784 311.8052 178.0059 14.29019399970401"}}, "geometry": {"type": "Point", "coordinates": [78.07052985957185, 6.734928330611274]}}, {"type": "Feature", "properties": {"norad_id": 29875, "name": "FENGYUN 1C DEB", "group": "fengyun-1c-debris", "lat": 3.1428417270577764, "lon": -127.97878794678232, "alt_km": 864.6744829838926, "timestamp": "2025-12-26T17:24:54.991432+00:00", "meta": {"OBJECT_NAME": "FENGYUN 1C DEB", "OBJECT_ID": "1999-025FV", "EPOCH": "2025-12-26T03:23:53.427840", "MEAN_MOTION": 14.24880394, "ECCENTRICITY": 0.00825806, "INCLINATION": 98.4032, "RA_OF_ASC_NODE": 50.997, "ARG_OF_PERICENTER": 24.3983, "MEAN_ANOMALY": 37.6983, "EPHEMERIS_TYPE": 0, "CLASSIFICATION_TYPE": "U", "NORAD_CAT_ID": 29875, "ELEMENT_SET_NO": 999, "REV_AT_EPOCH": 98513, "BSTAR": 2.506615e-05, "MEAN_MOTION_DOT": 1.9e-07, "MEAN_MOTION_DDOT": 0}, "tle": {"line1": "1 29875U 99025FV  25360.14159060  .00000019  00000+0  25066-4 0  9990", "line2": "2 29875  98.4032  50.9970 0082580  24.3983  37.6983 14.24880394985136"}}, "geometry": {"type": "Point", "coordinates": [-127.97878794678232, 3.1428417270577764]}}, {"type": "Feature", "properties": {"norad_id": 29876, "name": "FENGYUN 1C DEB", "group": "fengyun-1c-debris", "lat": -20.438136759733936, "lon": -132.6383916414266, "alt_km": 860.8116815250096, "timestamp": "2025-12-26T17:24:54.991442+00:00", "meta": {"OBJECT_NAME": "FENGYUN 1C DEB", "OBJECT_ID": "1999-025FW", "EPOCH": "2025-12-26T03:03:51.071616", "MEAN_MOTION": 14.20305689, "ECCENTRICITY": 0.00607465, "INCLINATION": 98.3314, "RA_OF_ASC_NODE": 49.9286, "ARG_OF_PERICENTER": 338.2493, "MEAN_ANOMALY": 47.0905, "EPHEMERIS_TYPE": 0, "CLASSIFICATION_TYPE": "U", "NORAD_CAT_ID": 29876, "ELEMENT_SET_NO": 999, "REV_AT_EPOCH": 98107, "BSTAR": 0.00013470252, "MEAN_MOTION_DOT": 2.53e-06, "MEAN_MOTION_DDOT": 0}, "tle": {"line1": "1 29876U 99025FW  25360.12767444  .00000253  00000+0  13470-3 0  9995", "line2": "2 29876  98.3314  49.9286 0060746 338.2493  47.0905 14.20305689981073"}}, "geometry": {"type": "Point", "coordinates": [-132.6383916414266, -20.438136759733936]}}, {"type": "Feature", "properties": {"norad_id": 29877, "name": "FENGYUN 1C DEB", "group": "fengyun-1c-debris", "lat": -69.3706393186561, "lon": 29.167058863270217, "alt_km": 828.5289847659033, "timestamp": "2025-12-26T17:24:54.991453+00:00", "meta": {"OBJECT_NAME": "FENGYUN 1C DEB", "OBJECT_ID": "1999-025FX", "EPOCH": "2025-12-25T23:30:27.661248", "MEAN_MOTION": 14.24818643, "ECCENTRICITY": 0.0046479, "INCLINATION": 98.5372, "RA_OF_ASC_NODE": 4.9253, "ARG_OF_PERICENTER": 179.4396, "MEAN_ANOMALY": 243.8692, "EPHEMERIS_TYPE": 0, "CLASSIFICATION_TYPE": "U", "NORAD_CAT_ID": 29877, "ELEMENT_SET_NO": 999, "REV_AT_EPOCH": 98162, "BSTAR": 0.00041295, "MEAN_MOTION_DOT": 9.31e-06, "MEAN_MOTION_DDOT": 0}, "tle": {"line1": "1 29877U 99025FX  25359.97948682  .00000931  00000+0  41295-3 0  9991", "line2": "2 29877  98.5372   4.9253 0046479 179.4396 243.8692 14.24818643981622"}}, "geometry": {"type": "Point", "coordinates": [29.167058863270217, -69.3706393186561]}}]}